[{"OBJECT_NAME":"OBJECT A","OBJECT_ID":"2024-125A","EPOCH":"2026-03-09T13:18:08.235936","MEAN_MOTION":15.55711721,"ECCENTRICITY":0.00113867,"INCLINATION":97.2433,"RA_OF_ASC_NODE":284.9987,"ARG_OF_PERICENTER":215.4363,"MEAN_ANOMALY":144.6137,"EPHEMERIS_TYPE":0,"CLASSIFICATION_TYPE":"U","NORAD_CAT_ID":60203,"ELEMENT_SET_NO":999,"REV_AT_EPOCH":9409,"BSTAR":0.0007001684,"MEAN_MOTION_DOT":0.00048428,"MEAN_MOTION_DDOT":0},{"OBJECT_NAME":"USA 76","OBJECT_ID":"1991-076D","EPOCH":"2026-03-09T13:26:15.944928","MEAN_MOTION":13.58542045,"ECCENTRICITY":0.0886705,"INCLINATION":63.2994,"RA_OF_ASC_NODE":60.1095,"ARG_OF_PERICENTER":72.6365,"MEAN_ANOMALY":296.9601,"EPHEMERIS_TYPE":0,"CLASSIFICATION_TYPE":"U","NORAD_CAT_ID":21808,"ELEMENT_SET_NO":999,"REV_AT_EPOCH":9249,"BSTAR":0.00059173,"MEAN_MOTION_DOT":7.457e-5,"MEAN_MOTION_DDOT":0}]
